{
  "type": "FeatureCollection",
  "features": [
    {
      "type": "Feature",
      "properties": {
        "norad_id": 66174,
        "name": "HTV-X1",
        "group": "stations",
        "lat": -44.986727919496076,
        "lon": 79.97467486215838,
        "alt_km": 420.7728908807103,
        "timestamp": "2025-12-14T18:52:54.266089+00:00",
        "meta_object_name": "HTV-X1",
        "meta_object_id": "2025-241A",
        "meta_epoch": "2025-12-13T21:29:24.134208",
        "meta_mean_motion": 15.49578,
        "meta_eccentricity": 0.00032568,
        "meta_inclination": 51.6304,
        "meta_ra_of_asc_node": 136.7564,
        "meta_arg_of_pericenter": 246.2023,
        "meta_mean_anomaly": 113.8624,
        "meta_ephemeris_type": 0,
        "meta_classification_type": "U",
        "meta_norad_cat_id": 66174,
        "meta_element_set_no": 999,
        "meta_rev_at_epoch": 51,
        "meta_bstar": 0.00022109287,
        "meta_mean_motion_dot": 0.00011998,
        "meta_mean_motion_ddot": 0,
        "tle_line1": "1 66174U 25241A   25347.89541822  .00011998  00000+0  22109-3 0  9992",
        "tle_line2": "2 66174  51.6304 136.7564 0003256 246.2023 113.8624 15.49578000   512"
      },
      "geometry": {
        "type": "Point",
        "coordinates": [
          79.97467486215838,
          -44.986727919496076
        ]
      }
    },
    {
      "type": "Feature",
      "properties": {
        "norad_id": 66515,
        "name": "SZ-21 MODULE",
        "group": "stations",
        "lat": 34.65815956711245,
        "lon": 55.05490875707778,
        "alt_km": 377.76812451822025,
        "timestamp": "2025-12-14T18:52:54.266100+00:00",
        "meta_object_name": "SZ-21 MODULE",
        "meta_object_id": "2025-246C",
        "meta_epoch": "2025-12-13T05:48:56.217312",
        "meta_mean_motion": 15.62521016,
        "meta_eccentricity": 0.00062862,
        "meta_inclination": 41.4775,
        "meta_ra_of_asc_node": 12.9802,
        "meta_arg_of_pericenter": 263.0797,
        "meta_mean_anomaly": 96.9328,
        "meta_ephemeris_type": 0,
        "meta_classification_type": "U",
        "meta_norad_cat_id": 66515,
        "meta_element_set_no": 999,
        "meta_rev_at_epoch": 452,
        "meta_bstar": 0.00043386364,
        "meta_mean_motion_dot": 0.00039667,
        "meta_mean_motion_ddot": 0,
        "tle_line1": "1 66515U 25246C   25347.24231733  .00039667  00000+0  43386-3 0  9995",
        "tle_line2": "2 66515  41.4775  12.9802 0006286 263.0797  96.9328 15.62521016  4528"
      },
      "geometry": {
        "type": "Point",
        "coordinates": [
          55.05490875707778,
          34.65815956711245
        ]
      }
    },
    {
      "type": "Feature",
      "properties": {
        "norad_id": 66645,
        "name": "SHENZHOU-22",
        "group": "stations",
        "lat": 32.201049081949044,
        "lon": 138.78869614501158,
        "alt_km": 383.4258200514305,
        "timestamp": "2025-12-14T18:52:54.266110+00:00",
        "meta_object_name": "SHENZHOU-22",
        "meta_object_id": "2025-272A",
        "meta_epoch": "2025-12-13T19:17:07.421568",
        "meta_mean_motion": 15.59230309,
        "meta_eccentricity": 0.00080892,
        "meta_inclination": 41.4685,
        "meta_ra_of_asc_node": 10.2494,
        "meta_arg_of_pericenter": 39.7422,
        "meta_mean_anomaly": 320.4007,
        "meta_ephemeris_type": 0,
        "meta_classification_type": "U",
        "meta_norad_cat_id": 66645,
        "meta_element_set_no": 999,
        "meta_rev_at_epoch": 26357,
        "meta_bstar": 0.00031564739,
        "meta_mean_motion_dot": 0.00025274,
        "meta_mean_motion_ddot": 0,
        "tle_line1": "1 66645U 25272A   25347.80355812  .00025274  00000+0  31565-3 0  9990",
        "tle_line2": "2 66645  41.4685  10.2494 0008089  39.7422 320.4007 15.59230309263575"
      },
      "geometry": {
        "type": "Point",
        "coordinates": [
          138.78869614501158,
          32.201049081949044
        ]
      }
    },
    {
      "type": "Feature",
      "properties": {
        "norad_id": 66664,
        "name": "SOYUZ-MS 28",
        "group": "stations",
        "lat": -44.986726869390715,
        "lon": 79.97467758402998,
        "alt_km": 420.77289090405793,
        "timestamp": "2025-12-14T18:52:54.266123+00:00",
        "meta_object_name": "SOYUZ-MS 28",
        "meta_object_id": "2025-275A",
        "meta_epoch": "2025-12-13T21:29:24.134208",
        "meta_mean_motion": 15.49578,
        "meta_eccentricity": 0.00032568,
        "meta_inclination": 51.6304,
        "meta_ra_of_asc_node": 136.7564,
        "meta_arg_of_pericenter": 246.2023,
        "meta_mean_anomaly": 113.8624,
        "meta_ephemeris_type": 0,
        "meta_classification_type": "U",
        "meta_norad_cat_id": 66664,
        "meta_element_set_no": 999,
        "meta_rev_at_epoch": 128,
        "meta_bstar": 0.00022109287,
        "meta_mean_motion_dot": 0.00011998,
        "meta_mean_motion_ddot": 0,
        "tle_line1": "1 66664U 25275A   25347.89541822  .00011998  00000+0  22109-3 0  9993",
        "tle_line2": "2 66664  51.6304 136.7564 0003256 246.2023 113.8624 15.49578000  1281"
      },
      "geometry": {
        "type": "Point",
        "coordinates": [
          79.97467758402998,
          -44.986726869390715
        ]
      }
    },
    {
      "type": "Feature",
      "properties": {
        "norad_id": 66906,
        "name": "1998-067XS",
        "group": "stations",
        "lat": -20.914454688058072,
        "lon": 114.63892537677152,
        "alt_km": 418.90256122673327,
        "timestamp": "2025-12-14T18:52:54.266133+00:00",
        "meta_object_name": "1998-067XS",
        "meta_object_id": "1998-067XS",
        "meta_epoch": "2025-12-13T19:47:52.336320",
        "meta_mean_motion": 15.50642629,
        "meta_eccentricity": 0.00035104,
        "meta_inclination": 51.6303,
        "meta_ra_of_asc_node": 137.0364,
        "meta_arg_of_pericenter": 208.0686,
        "meta_mean_anomaly": 152.0114,
        "meta_ephemeris_type": 0,
        "meta_classification_type": "U",
        "meta_norad_cat_id": 66906,
        "meta_element_set_no": 999,
        "meta_rev_at_epoch": 178,
        "meta_bstar": 0.00053972464,
        "meta_mean_motion_dot": 0.00031181,
        "meta_mean_motion_ddot": 0,
        "tle_line1": "1 66906U 98067XS  25347.82491130  .00031181  00000+0  53972-3 0  9998",
        "tle_line2": "2 66906  51.6303 137.0364 0003510 208.0686 152.0114 15.50642629  1780"
      },
      "geometry": {
        "type": "Point",
        "coordinates": [
          114.63892537677152,
          -20.914454688058072
        ]
      }
    },
    {
      "type": "Feature",
      "properties": {
        "norad_id": 66907,
        "name": "1998-067XT",
        "group": "stations",
        "lat": -3.7025393820137404,
        "lon": 129.2780597476342,
        "alt_km": 414.2447653225845,
        "timestamp": "2025-12-14T18:52:54.266144+00:00",
        "meta_object_name": "1998-067XT",
        "meta_object_id": "1998-067XT",
        "meta_epoch": "2025-12-13T16:37:31.235232",
        "meta_mean_motion": 15.51604707,
        "meta_eccentricity": 0.00043667,
        "meta_inclination": 51.6303,
        "meta_ra_of_asc_node": 137.6541,
        "meta_arg_of_pericenter": 232.3065,
        "meta_mean_anomaly": 127.7529,
        "meta_ephemeris_type": 0,
        "meta_classification_type": "U",
        "meta_norad_cat_id": 66907,
        "meta_element_set_no": 999,
        "meta_rev_at_epoch": 176,
        "meta_bstar": 0.0011074189,
        "meta_mean_motion_dot": 0.00067037,
        "meta_mean_motion_ddot": 0,
        "tle_line1": "1 66907U 98067XT  25347.69272263  .00067037  00000+0  11074-2 0  9993",
        "tle_line2": "2 66907  51.6303 137.6541 0004366 232.3065 127.7529 15.51604707  1768"
      },
      "geometry": {
        "type": "Point",
        "coordinates": [
          129.2780597476342,
          -3.7025393820137404
        ]
      }
    },
    {
      "type": "Feature",
      "properties": {
        "norad_id": 66908,
        "name": "1998-067XU",
        "group": "stations",
        "lat": -1.7509732993975264,
        "lon": 130.82321646068522,
        "alt_km": 413.882731730052,
        "timestamp": "2025-12-14T18:52:54.266155+00:00",
        "meta_object_name": "1998-067XU",
        "meta_object_id": "1998-067XU",
        "meta_epoch": "2025-12-13T19:42:27.196704",
        "meta_mean_motion": 15.51709735,
        "meta_eccentricity": 0.00044517,
        "meta_inclination": 51.6297,
        "meta_ra_of_asc_node": 137.0108,
        "meta_arg_of_pericenter": 232.0279,
        "meta_mean_anomaly": 128.0309,
        "meta_ephemeris_type": 0,
        "meta_classification_type": "U",
        "meta_norad_cat_id": 66908,
        "meta_element_set_no": 999,
        "meta_rev_at_epoch": 178,
        "meta_bstar": 0.0012120961,
        "meta_mean_motion_dot": 0.0007376,
        "meta_mean_motion_ddot": 0,
        "tle_line1": "1 66908U 98067XU  25347.82114811  .00073760  00000+0  12121-2 0  9997",
        "tle_line2": "2 66908  51.6297 137.0108 0004451 232.0279 128.0309 15.51709735  1782"
      },
      "geometry": {
        "type": "Point",
        "coordinates": [
          130.82321646068522,
          -1.7509732993975264
        ]
      }
    }
  ]
}